EUTELSAT 70B            
1 39020U 12069A   18222.91724103 -.00000066  00000-0  00000+0 0  9996
2 39020   0.0741 330.8915 0003180 175.5652 213.5503  1.00271719 20863
YAMAL 402               
1 39022U 12070A   18222.90319750  .00000063  00000-0  00000-0 0  9994
2 39022   0.0233 102.7154 0002672  42.2483 194.4149  1.00274156 20848
SKYNET 5D               
1 39034U 12075A   18222.90284855  .00000077  00000-0  00000-0 0  9994
2 39034   0.0709  10.3389 0003377 138.7747 187.9521  1.00271518 20413
MEXSAT 3                
1 39035U 12075B   18222.43319113 -.00000047  00000-0  00000+0 0  9996
2 39035   0.0212 146.0119 0002175   5.0948 208.8934  1.00271584 20723
TDRS 11                 
1 39070U 13004A   18222.50342717  .00000079  00000-0  00000+0 0  9996
2 39070   4.8210 328.7419 0003502 292.9869  67.2034  1.00269384 20237
AMAZONAS 3              
1 39078U 13006A   18222.28409470 -.00000303  00000-0  00000+0 0  9992
2 39078   0.0501 251.4704 0003568 284.7028 183.8181  1.00271161 20215
AZERSPACE 1             
1 39079U 13006B   18222.98505558  .00000110  00000-0  00000+0 0  9999
2 39079   0.0114  91.4381 0001309  59.4605 209.1088  1.00270253 20183
EUTELSAT 117 WEST A     
1 39122U 13012A   18222.43879363 -.00000034  00000-0  00000-0 0  9990
2 39122   0.0155 307.0438 0002732 190.9162 222.0490  1.00272074 19706
ANIK G1                 
1 39127U 13014A   18222.41237742 -.00000095  00000-0  00000-0 0  9991
2 39127   0.0027  88.6915 0000343 131.1190 140.1870  1.00269877 19502
CHINASAT 11 (ZX 11)     
1 39157U 13020A   18221.52410396 -.00000308  00000-0  00000+0 0  9996
2 39157   0.0269 259.4294 0002011  29.7698 315.4254  1.00268906 19381
EUTELSAT 7B             
1 39163U 13022A   18222.09585034  .00000028  00000-0  00000+0 0  9998
2 39163   0.0406  40.9336 0002215 358.0662 321.0050  1.00271624 19238
SES-6                   
1 39172U 13026A   18222.22737361 -.00000282  00000-0  00000+0 0  9992
2 39172   0.0431 287.2211 0001383 191.5514 241.2299  1.00271429 18976
IRNSS-1A                
1 39199U 13034A   18222.26146094  .00000059  00000-0  00000+0 0  9992
2 39199  29.5387 107.8842 0018159 181.1483 178.9018  1.00277484 18889
ALPHASAT                
1 39215U 13038A   18222.11884864  .00000117  00000-0  00000-0 0  9999
2 39215   1.9974  25.6221 0001773 132.0720 228.5015  1.00273059 15290
INSAT-3D                
1 39216U 13038B   18221.88772276 -.00000175  00000-0  00000-0 0  9991
2 39216   0.1080 278.6185 0001104 265.7193 175.6507  1.00271495 18355
EUTELSAT 25B            
1 39233U 13044A   18223.04180484  .00000120  00000-0  00000+0 0  9999
2 39233   0.0493   4.0461 0001400 133.4242 222.5271  1.00270062 18151
GSAT-7                  
1 39234U 13044B   18221.91026583 -.00000096  00000-0  00000-0 0  9997
2 39234   0.0992 271.1491 0001479   6.4460  82.3773  1.00270369 16587
AMOS-4                  
1 39237U 13045A   18221.93520238 -.00000012  00000-0  00000+0 0  9996
2 39237   0.0130 129.0932 0001947 338.8871 252.0304  1.00273032 18132
ASTRA 2E                
1 39285U 13056A   18222.03626140  .00000130  00000-0  00000-0 0  9993
2 39285   0.0543  25.3767 0002416  98.9710 235.6644  1.00268366 17716
SIRIUS FM-6             
1 39360U 13058A   18222.43689556 -.00000038  00000-0  00000+0 0  9990
2 39360   0.0077  45.0459 0000341 359.0109 315.9339  1.00272648 17594
RADUGA-1M 3             
1 39375U 13062A   18221.84632757 -.00000058  00000-0  00000-0 0  9999
2 39375   0.0299 205.1050 0002365 280.9697 206.8848  1.00272641 17365
SES-8                   
1 39460U 13071A   18222.84930258 -.00000292  00000-0  00000-0 0  9992
2 39460   0.0554 273.1675 0002532 197.8624 248.9841  1.00271098 15750
INMARSAT 5-F1           
1 39476U 13073A   18221.94174935  .00000009  00000-0  00000+0 0  9997
2 39476   0.0148  86.8891 0000535 232.5918  40.5045  1.00271206 17170
TKSAT-1 (TUPAC KATARI)  
1 39481U 13075A   18222.58771220 -.00000216  00000-0  00000-0 0  9998
2 39481   0.0012 267.3643 0001929 209.7903 326.2380  1.00272289 16835
EXPRESS-AM5             
1 39487U 13077A   18223.23614429 -.00000304  00000-0  00000+0 0  9993
2 39487   0.0542 256.2450 0000782  37.8000 250.6209  1.00269652 17624
GSAT-14                 
1 39498U 14001A   18220.91306878 -.00000092  00000-0  00000+0 0  9995
2 39498   0.0830 102.7716 0003932   5.6852 251.5785  1.00271094 16816
THAICOM 6               
1 39500U 14002A   18222.85613648 -.00000143  00000-0  00000+0 0  9998
2 39500   0.0523 125.1570 0004166  21.2305 199.5771  1.00271614 16761
TDRS 12                 
1 39504U 14004A   18223.16031263 -.00000286  00000-0  00000+0 0  9994
2 39504   5.4974 336.0020 0000807 146.5146 213.6859  1.00278744 16709
ABS-2                   
1 39508U 14006A   18222.90496486 -.00000108  00000-0  00000+0 0  9996
2 39508   0.0285 271.4789 0003302 218.9655 229.5713  1.00271759 16574
ATHENA-FIDUS            
1 39509U 14006B   18222.01038684  .00000134  00000-0  00000+0 0  9999
2 39509   0.0153  84.7261 0000983  79.9895 195.2765  1.00274709 16745
TURKSAT 4A              
1 39522U 14007A   18221.99871763  .00000127  00000-0  00000-0 0  9997
2 39522   0.0781 273.6128 0002277 299.9159 146.4461  1.00268084 16237
EXPRESS-AT1             
1 39612U 14010A   18222.75990185  .00000056  00000-0  00000+0 0  9996
2 39612   0.0321 255.1704 0000623  26.7327   6.8253  1.00271758 16294
EXPRESS-AT2             
1 39613U 14010B   18222.77656391 -.00000304  00000-0  00000-0 0  9995
2 39613   0.0417 262.5055 0000280  16.8798  99.2043  1.00269932 16130
AMAZONAS 4A             
1 39616U 14011A   18222.32019508 -.00000273  00000-0  00000-0 0  9998
2 39616   0.0475  72.0714 0003378  68.6877 219.2538  1.00271440 15945
ASTRA 5B                
1 39617U 14011B   18222.90535756  .00000132  00000-0  00000-0 0  9994
2 39617   0.0948 289.3553 0004204 222.5723 164.8238  1.00274300 15912
IRNSS-1B                
1 39635U 14017A   18221.76373412  .00000088  00000-0  00000-0 0  9992
2 39635  29.1149 288.2308 0022939 185.3837 174.6916  1.00278309 15836
LUCH 5V                 
1 39727U 14023A   18222.91122319 -.00000290  00000-0  00000-0 0  9993
2 39727   1.8669 299.5554 0002151 209.7047 232.8604  1.00272516533771
KAZSAT-3                
1 39728U 14023B   18221.95305501  .00000042  00000-0  00000+0 0  9996
2 39728   0.0099 339.5453 0000332 285.7418  94.6984  1.00269465 15687
EUTELSAT 3B             
1 39773U 14030A   18222.82114142 -.00000003  00000-0  00000+0 0  9998
2 39773   0.0621 358.9632 0004523 167.3965  91.5653  1.00271634 15466
ASIASAT 8               
1 40107U 14046A   18222.12592471 -.00000053  00000-0  00000+0 0  9991
2 40107   0.0049   3.4559 0001520 129.7069 226.8389  1.00271897 14744
ASIASAT 6               
1 40141U 14052A   18223.20470094 -.00000385  00000-0  00000+0 0  9990
2 40141   0.0066 261.1325 0000387 218.1688  33.9025  1.00272985 14412
OPTUS 10                
1 40146U 14054A   18222.65821764 -.00000097  00000-0  00000+0 0  9999
2 40146   0.0240  99.7276 0001352  42.0077 218.2618  1.00271439 14374
MEASAT-3B               
1 40147U 14054B   18222.85897555 -.00000264  00000-0  00000-0 0  9990
2 40147   0.0328 344.6401 0001150 118.3616 256.9981  1.00270414 14156
LUCH (OLYMP)            
1 40258U 14058A   18222.95430649  .00000092  00000-0  10000-3 0  9997
2 40258   0.0114 127.7393 0001658   5.7764 219.2910  1.00271970 14183
HIMAWARI-8              
1 40267U 14060A   18222.72278536 -.00000298  00000-0  00000-0 0  9995
2 40267   0.0096 126.0562 0000761  47.3137 186.6184  1.00270690 14001
IRNSS-1C                
1 40269U 14061A   18222.52165164 -.00000184  00000-0  00000-0 0  9992
2 40269   2.3077 230.0514 0019380   5.5494 354.1110  1.00274597 13931
INTELSAT 30 (IS-30)     
1 40271U 14062A   18221.62892771 -.00000169  00000-0  00000+0 0  9999
2 40271   0.0143  79.6469 0001581   4.9917   4.7759  1.00270621 14006
ARSAT 1                 
1 40272U 14062B   18222.35743778 -.00000280  00000-0  00000-0 0  9998
2 40272   0.0673 265.1748 0000993 258.3927 212.0777  1.00270181 13856
EXPRESS-AM6             
1 40277U 14064A   18222.47212470  .00000076  00000-0  00000-0 0  9990
2 40277   0.0594 258.3850 0000276  11.0516 272.4165  1.00273815 12838
GSAT-16                 
1 40332U 14078A   18221.96287893  .00000065  00000-0  00000-0 0  9999
2 40332   0.0932 274.7025 0006865 181.2593 264.1057  1.00271770 13373
DIRECTV 14              
1 40333U 14078B   18222.61882325 -.00000147  00000-0  00000-0 0  9996
2 40333   0.0282 101.1084 0000813 240.2910 101.1885  1.00269309 13392
YAMAL 401               
1 40345U 14082A   18222.23399532 -.00000249  00000-0  00000-0 0  9998
2 40345   0.0176 131.0521 0000847 132.3140 229.4610  1.00270767 13657
ASTRA 2G                
1 40364U 14089A   18223.03436807  .00000127  00000-0  00000+0 0  9995
2 40364   0.0565 300.0317 0003503 146.7391 273.2558  1.00268102 13276
FENGYUN 2G              
1 40367U 14090A   18220.60049407 -.00000316  00000-0  00000+0 0  9997
2 40367   0.5407 114.7039 0002105 200.0948 318.0792  1.00271837 13265
INMARSAT 5-F2           
1 40384U 15005A   18222.73774396 -.00000307  00000-0  00000-0 0  9992
2 40384   0.0217  97.8010 0000331 252.5388 179.4021  1.00270442 12261
ABS-3A                  
1 40424U 15010A   18222.12357392 -.00000047  00000-0  00000+0 0  9999
2 40424   0.0145  91.5864 0002049 331.1405 297.2827  1.00271732 12655
EUTELSAT 115 WEST B     
1 40425U 15010B   18222.43346722 -.00000046  00000-0  00000+0 0  9998
2 40425   0.0232 244.2133 0000320 246.1214 229.6560  1.00272742 12680
EXPRESS-AM7             
1 40505U 15012A   18222.90023148  .00000128  00000-0  00000-0 0  9996
2 40505   0.0155  93.1836 0002330  55.4653 174.7212  1.00272258 12603
IRNSS-1D                
1 40547U 15018A   18222.60444019 -.00000295  00000-0  00000+0 0  9994
2 40547  29.0460 288.3284 0021418 184.8091 175.2699  1.00269632 12499
